{
  "type": "FeatureCollection",
  "features": [
    {
      "type": "Feature",
      "properties": {
        "norad_id": 24946,
        "name": "IRIDIUM 33",
        "group": "iridium-33-debris",
        "lat": -6.919453015172982,
        "lon": -110.69637451919846,
        "alt_km": 774.2656323994088,
        "timestamp": "2025-12-11T05:00:26.692979+00:00",
        "meta_object_name": "IRIDIUM 33",
        "meta_object_id": "1997-051C",
        "meta_epoch": "2025-12-10T16:25:29.386560",
        "meta_mean_motion": 14.35035179,
        "meta_eccentricity": 0.00067987,
        "meta_inclination": 86.387,
        "meta_ra_of_asc_node": 69.0843,
        "meta_arg_of_pericenter": 207.8274,
        "meta_mean_anomaly": 152.2559,
        "meta_ephemeris_type": 0,
        "meta_classification_type": "U",
        "meta_norad_cat_id": 24946,
        "meta_element_set_no": 999,
        "meta_rev_at_epoch": 47805,
        "meta_bstar": 0.00019394345,
        "meta_mean_motion_dot": 5.72e-06,
        "meta_mean_motion_ddot": 0,
        "tle_line1": "1 24946U 97051C   25344.68436790  .00000572  00000+0  19394-3 0  9990",
        "tle_line2": "2 24946  86.3870  69.0843 0006798 207.8274 152.2559 14.35035179478050"
      },
      "geometry": {
        "type": "Point",
        "coordinates": [
          -110.69637451919846,
          -6.919453015172982
        ]
      }
    },
    {
      "type": "Feature",
      "properties": {
        "norad_id": 33773,
        "name": "IRIDIUM 33 DEB",
        "group": "iridium-33-debris",
        "lat": 80.76991821689072,
        "lon": -141.54638818182897,
        "alt_km": 735.0762738602416,
        "timestamp": "2025-12-11T05:00:26.693016+00:00",
        "meta_object_name": "IRIDIUM 33 DEB",
        "meta_object_id": "1997-051L",
        "meta_epoch": "2025-12-10T11:54:46.043136",
        "meta_mean_motion": 14.43249294,
        "meta_eccentricity": 0.00122729,
        "meta_inclination": 86.4013,
        "meta_ra_of_asc_node": 61.5401,
        "meta_arg_of_pericenter": 153.0085,
        "meta_mean_anomaly": 207.1757,
        "meta_ephemeris_type": 0,
        "meta_classification_type": "U",
        "meta_norad_cat_id": 33773,
        "meta_element_set_no": 999,
        "meta_rev_at_epoch": 88315,
        "meta_bstar": 0.00048914009,
        "meta_mean_motion_dot": 1.666e-05,
        "meta_mean_motion_ddot": 0,
        "tle_line1": "1 33773U 97051L   25344.49636624  .00001666  00000+0  48914-3 0  9990",
        "tle_line2": "2 33773  86.4013  61.5401 0012272 153.0085 207.1757 14.43249294883156"
      },
      "geometry": {
        "type": "Point",
        "coordinates": [
          -141.54638818182897,
          80.76991821689072
        ]
      }
    },
    {
      "type": "Feature",
      "properties": {
        "norad_id": 33775,
        "name": "IRIDIUM 33 DEB",
        "group": "iridium-33-debris",
        "lat": -12.130678960794851,
        "lon": -129.00949493218351,
        "alt_km": 749.7456843875698,
        "timestamp": "2025-12-11T05:00:26.693032+00:00",
        "meta_object_name": "IRIDIUM 33 DEB",
        "meta_object_id": "1997-051N",
        "meta_epoch": "2025-12-10T11:30:55.922688",
        "meta_mean_motion": 14.41461021,
        "meta_eccentricity": 0.00140482,
        "meta_inclination": 86.3639,
        "meta_ra_of_asc_node": 50.5184,
        "meta_arg_of_pericenter": 161.5462,
        "meta_mean_anomaly": 210.7248,
        "meta_ephemeris_type": 0,
        "meta_classification_type": "U",
        "meta_norad_cat_id": 33775,
        "meta_element_set_no": 999,
        "meta_rev_at_epoch": 88108,
        "meta_bstar": 0.00051864419,
        "meta_mean_motion_dot": 1.703e-05,
        "meta_mean_motion_ddot": 0,
        "tle_line1": "1 33775U 97051N   25344.47981392  .00001703  00000+0  51864-3 0  9995",
        "tle_line2": "2 33775  86.3639  50.5184 0014048 161.5462 210.7248 14.41461021881080"
      },
      "geometry": {
        "type": "Point",
        "coordinates": [
          -129.00949493218351,
          -12.130678960794851
        ]
      }
    },
    {
      "type": "Feature",
      "properties": {
        "norad_id": 33776,
        "name": "IRIDIUM 33 DEB",
        "group": "iridium-33-debris",
        "lat": 78.69070216726102,
        "lon": 99.74717497718905,
        "alt_km": 761.5535819226898,
        "timestamp": "2025-12-11T05:00:26.693045+00:00",
        "meta_object_name": "IRIDIUM 33 DEB",
        "meta_object_id": "1997-051P",
        "meta_epoch": "2025-12-10T17:44:33.475776",
        "meta_mean_motion": 14.38229713,
        "meta_eccentricity": 0.00141135,
        "meta_inclination": 86.4038,
        "meta_ra_of_asc_node": 81.6159,
        "meta_arg_of_pericenter": 197.0601,
        "meta_mean_anomaly": 333.7153,
        "meta_ephemeris_type": 0,
        "meta_classification_type": "U",
        "meta_norad_cat_id": 33776,
        "meta_element_set_no": 999,
        "meta_rev_at_epoch": 88053,
        "meta_bstar": 0.00049885239,
        "meta_mean_motion_dot": 1.536e-05,
        "meta_mean_motion_ddot": 0,
        "tle_line1": "1 33776U 97051P   25344.73927634  .00001536  00000+0  49885-3 0  9998",
        "tle_line2": "2 33776  86.4038  81.6159 0014113 197.0601 333.7153 14.38229713880530"
      },
      "geometry": {
        "type": "Point",
        "coordinates": [
          99.74717497718905,
          78.69070216726102
        ]
      }
    },
    {
      "type": "Feature",
      "properties": {
        "norad_id": 33777,
        "name": "IRIDIUM 33 DEB",
        "group": "iridium-33-debris",
        "lat": 48.33915026843,
        "lon": -148.21262165427268,
        "alt_km": 705.2506453105325,
        "timestamp": "2025-12-11T05:00:26.693057+00:00",
        "meta_object_name": "IRIDIUM 33 DEB",
        "meta_object_id": "1997-051Q",
        "meta_epoch": "2025-12-10T21:48:19.864800",
        "meta_mean_motion": 14.55591731,
        "meta_eccentricity": 0.00050859,
        "meta_inclination": 86.3785,
        "meta_ra_of_asc_node": 35.9997,
        "meta_arg_of_pericenter": 257.3143,
        "meta_mean_anomaly": 102.7497,
        "meta_ephemeris_type": 0,
        "meta_classification_type": "U",
        "meta_norad_cat_id": 33777,
        "meta_element_set_no": 999,
        "meta_rev_at_epoch": 88507,
        "meta_bstar": 0.0013448592,
        "meta_mean_motion_dot": 5.885e-05,
        "meta_mean_motion_ddot": 0,
        "tle_line1": "1 33777U 97051Q   25344.90856325  .00005885  00000+0  13449-2 0  9993",
        "tle_line2": "2 33777  86.3785  35.9997 0005085 257.3143 102.7497 14.55591731885070"
      },
      "geometry": {
        "type": "Point",
        "coordinates": [
          -148.21262165427268,
          48.33915026843
        ]
      }
    },
    {
      "type": "Feature",
      "properties": {
        "norad_id": 33850,
        "name": "IRIDIUM 33 DEB",
        "group": "iridium-33-debris",
        "lat": 10.733271888904508,
        "lon": -149.85669567441795,
        "alt_km": 744.4307777225622,
        "timestamp": "2025-12-11T05:00:26.693070+00:00",
        "meta_object_name": "IRIDIUM 33 DEB",
        "meta_object_id": "1997-051T",
        "meta_epoch": "2025-12-10T22:07:09.281280",
        "meta_mean_motion": 14.42140546,
        "meta_eccentricity": 0.0012029,
        "meta_inclination": 86.3418,
        "meta_ra_of_asc_node": 30.9615,
        "meta_arg_of_pericenter": 166.6192,
        "meta_mean_anomaly": 313.3926,
        "meta_ephemeris_type": 0,
        "meta_classification_type": "U",
        "meta_norad_cat_id": 33850,
        "meta_element_set_no": 999,
        "meta_rev_at_epoch": 88126,
        "meta_bstar": 0.00046416682,
        "meta_mean_motion_dot": 1.547e-05,
        "meta_mean_motion_ddot": 0,
        "tle_line1": "1 33850U 97051T   25344.92163520  .00001547  00000+0  46417-3 0  9998",
        "tle_line2": "2 33850  86.3418  30.9615 0012029 166.6192 313.3926 14.42140546881263"
      },
      "geometry": {
        "type": "Point",
        "coordinates": [
          -149.85669567441795,
          10.733271888904508
        ]
      }
    },
    {
      "type": "Feature",
      "properties": {
        "norad_id": 33853,
        "name": "IRIDIUM 33 DEB",
        "group": "iridium-33-debris",
        "lat": 68.56169028882647,
        "lon": 0.7469007063963738,
        "alt_km": 1039.4779053946186,
        "timestamp": "2025-12-11T05:00:26.693082+00:00",
        "meta_object_name": "IRIDIUM 33 DEB",
        "meta_object_id": "1997-051W",
        "meta_epoch": "2025-12-10T23:36:33.218784",
        "meta_mean_motion": 13.99044488,
        "meta_eccentricity": 0.02070297,
        "meta_inclination": 86.0001,
        "meta_ra_of_asc_node": 350.5812,
        "meta_arg_of_pericenter": 241.2627,
        "meta_mean_anomaly": 135.8914,
        "meta_ephemeris_type": 0,
        "meta_classification_type": "U",
        "meta_norad_cat_id": 33853,
        "meta_element_set_no": 999,
        "meta_rev_at_epoch": 85321,
        "meta_bstar": 0.0027417789,
        "meta_mean_motion_dot": 4.78e-05,
        "meta_mean_motion_ddot": 0,
        "tle_line1": "1 33853U 97051W   25344.98371781  .00004780  00000+0  27418-2 0  9998",
        "tle_line2": "2 33853  86.0001 350.5812 0207029 241.2627 135.8914 13.99044488853217"
      },
      "geometry": {
        "type": "Point",
        "coordinates": [
          0.7469007063963738,
          68.56169028882647
        ]
      }
    }
  ]
}